[
    {
        "Altitude(m)": 605459.0463796149,
        "Argument of Periapsis(deg)": 0.0,
        "Eccentricity": 0.0,
        "Inclination(deg)": 60.0,
        "Latitude(deg)": 27.98827108819,
        "Longitude(deg)": 27.798530349494854,
        "Mean Anomaly(deg)": 32.727299999999985,
        "RAAN(deg)": 110.00000000000001,
        "Satellite Name": "Test1 486",
        "Satellite Number": 486,
        "Semi-Major Axis(m)": 6980739.136638005,
        "Time(s)": 0
    },
    {
        "Altitude(m)": 605535.837809425,
        "Argument of Periapsis(deg)": 0.00010418945913296404,
        "Eccentricity": 0.0,
        "Inclination(deg)": 60.0,
        "Latitude(deg)": 28.501401234984456,
        "Longitude(deg)": 28.155474437497524,
        "Mean Anomaly(deg)": 33.347406145461825,
        "RAAN(deg)": 109.99957995086025,
        "Satellite Name": "Test1 486",
        "Satellite Number": 486,
        "Semi-Major Axis(m)": 6980739.136638005,
        "Time(s)": 10
    },
    {
        "Altitude(m)": 605614.3198569247,
        "Argument of Periapsis(deg)": 0.0002083789182659281,
        "Eccentricity": 0.0,
        "Inclination(deg)": 60.0,
        "Latitude(deg)": 29.013313861952657,
        "Longitude(deg)": 28.516283368616456,
        "Mean Anomaly(deg)": 33.967512290923665,
        "RAAN(deg)": 109.99915990172053,
        "Satellite Name": "Test1 486",
        "Satellite Number": 486,
        "Semi-Major Axis(m)": 6980739.136638005,
        "Time(s)": 20
    },
    {
        "Altitude(m)": 605694.4348297999,
        "Argument of Periapsis(deg)": 0.00031256837739889213,
        "Eccentricity": 0.0,
        "Inclination(deg)": 60.0,
        "Latitude(deg)": 29.523971696251202,
        "Longitude(deg)": 28.88106889919013,
        "Mean Anomaly(deg)": 34.58761843638548,
        "RAAN(deg)": 109.99873985258077,
        "Satellite Name": "Test1 486",
        "Satellite Number": 486,
        "Semi-Major Axis(m)": 6980739.136638005,
        "Time(s)": 30
    },
    {
        "Altitude(m)": 605776.1244263859,
        "Argument of Periapsis(deg)": 0.0004167578365318562,
        "Eccentricity": 0.0,
        "Inclination(deg)": 60.0,
        "Latitude(deg)": 30.033336468563224,
        "Longitude(deg)": 29.249945791887363,
        "Mean Anomaly(deg)": 35.20772458184732,
        "RAAN(deg)": 109.99831980344105,
        "Satellite Name": "Test1 486",
        "Satellite Number": 486,
        "Semi-Major Axis(m)": 6980739.136638005,
        "Time(s)": 40
    },
    {
        "Altitude(m)": 605859.3297660094,
        "Argument of Periapsis(deg)": 0.0005209472956648203,
        "Eccentricity": 0.0,
        "Inclination(deg)": 60.0,
        "Latitude(deg)": 30.54136887436184,
        "Longitude(deg)": 29.623030874523742,
        "Mean Anomaly(deg)": 35.827830727309134,
        "RAAN(deg)": 109.9978997543013,
        "Satellite Name": "Test1 486",
        "Satellite Number": 486,
        "Semi-Major Axis(m)": 6980739.136638005,
        "Time(s)": 50
    },
    {
        "Altitude(m)": 605943.9914195711,
        "Argument of Periapsis(deg)": 0.0006251367547977843,
        "Eccentricity": 0.0,
        "Inclination(deg)": 60.0,
        "Latitude(deg)": 31.04802853381866,
        "Longitude(deg)": 30.000443611926784,
        "Mean Anomaly(deg)": 36.447936872770974,
        "RAAN(deg)": 109.99747970516154,
        "Satellite Name": "Test1 486",
        "Satellite Number": 486,
        "Semi-Major Axis(m)": 6980739.136638005,
        "Time(s)": 60
    },
    {
        "Altitude(m)": 606030.0494403597,
        "Argument of Periapsis(deg)": 0.0007293262139307483,
        "Eccentricity": 0.0,
        "Inclination(deg)": 60.0,
        "Latitude(deg)": 31.553273950313276,
        "Longitude(deg)": 30.38230667781228,
        "Mean Anomaly(deg)": 37.068043018232814,
        "RAAN(deg)": 109.99705965602182,
        "Satellite Name": "Test1 486",
        "Satellite Number": 486,
        "Semi-Major Axis(m)": 6980739.136638005,
        "Time(s)": 70
    },
    {
        "Altitude(m)": 606117.4433950343,
        "Argument of Periapsis(deg)": 0.0008335156730637124,
        "Eccentricity": 0.0,
        "Inclination(deg)": 60.0,
        "Latitude(deg)": 32.05706246750207,
        "Longitude(deg)": 30.768745013614033,
        "Mean Anomaly(deg)": 37.68814916369463,
        "RAAN(deg)": 109.99663960688206,
        "Satellite Name": "Test1 486",
        "Satellite Number": 486,
        "Semi-Major Axis(m)": 6980739.136638005,
        "Time(s)": 80
    },
    {
        "Altitude(m)": 606206.11239484,
        "Argument of Periapsis(deg)": 0.0009377051321966765,
        "Eccentricity": 0.0,
        "Inclination(deg)": 60.0,
        "Latitude(deg)": 32.55935022491121,
        "Longitude(deg)": 31.159886399806204,
        "Mean Anomaly(deg)": 38.30825530915647,
        "RAAN(deg)": 109.99621955774234,
        "Satellite Name": "Test1 486",
        "Satellite Number": 486,
        "Semi-Major Axis(m)": 6980739.136638005,
        "Time(s)": 90
    },
    {
        "Altitude(m)": 606295.9951269539,
        "Argument of Periapsis(deg)": 0.0010418945913296407,
        "Eccentricity": 0.0,
        "Inclination(deg)": 60.0,
        "Latitude(deg)": 33.060092112012924,
        "Longitude(deg)": 31.555862026611365,
        "Mean Anomaly(deg)": 38.9283614546183,
        "RAAN(deg)": 109.99579950860257,
        "Satellite Name": "Test1 486",
        "Satellite Number": 486,
        "Semi-Major Axis(m)": 6980739.136638005,
        "Time(s)": 100
    },
    {
        "Altitude(m)": 606387.0298859996,
        "Argument of Periapsis(deg)": 0.0011460840504626045,
        "Eccentricity": 0.0,
        "Inclination(deg)": 60.0,
        "Latitude(deg)": 33.559241720745725,
        "Longitude(deg)": 31.95680555095758,
        "Mean Anomaly(deg)": 39.54846760008014,
        "RAAN(deg)": 109.99537945946282,
        "Satellite Name": "Test1 486",
        "Satellite Number": 486,
        "Semi-Major Axis(m)": 6980739.136638005,
        "Time(s)": 110
    },
    {
        "Altitude(m)": 606479.1546057179,
        "Argument of Periapsis(deg)": 0.0012502735095955685,
        "Eccentricity": 0.0,
        "Inclination(deg)": 60.0,
        "Latitude(deg)": 34.056751296447395,
        "Longitude(deg)": 32.36285366514128,
        "Mean Anomaly(deg)": 40.168573745541956,
        "RAAN(deg)": 109.99495941032308,
        "Satellite Name": "Test1 486",
        "Satellite Number": 486,
        "Semi-Major Axis(m)": 6980739.136638005,
        "Time(s)": 120
    },
    {
        "Altitude(m)": 606572.3068907319,
        "Argument of Periapsis(deg)": 0.0013544629687285324,
        "Eccentricity": 0.0,
        "Inclination(deg)": 60.0,
        "Latitude(deg)": 34.55257168716517,
        "Longitude(deg)": 32.77414666399517,
        "Mean Anomaly(deg)": 40.788679891003795,
        "RAAN(deg)": 109.99453936118334,
        "Satellite Name": "Test1 486",
        "Satellite Number": 486,
        "Semi-Major Axis(m)": 6980739.136638005,
        "Time(s)": 130
    },
    {
        "Altitude(m)": 606666.4240484348,
        "Argument of Periapsis(deg)": 0.0014586524278614966,
        "Eccentricity": 0.0,
        "Inclination(deg)": 60.0,
        "Latitude(deg)": 35.046652291309066,
        "Longitude(deg)": 33.19082749732617,
        "Mean Anomaly(deg)": 41.408786036465635,
        "RAAN(deg)": 109.9941193120436,
        "Satellite Name": "Test1 486",
        "Satellite Number": 486,
        "Semi-Major Axis(m)": 6980739.136638005,
        "Time(s)": 140
    },
    {
        "Altitude(m)": 606761.44312097,
        "Argument of Periapsis(deg)": 0.0015628418869944607,
        "Eccentricity": 0.0,
        "Inclination(deg)": 60.0,
        "Latitude(deg)": 35.53894100362581,
        "Longitude(deg)": 33.61304233296966,
        "Mean Anomaly(deg)": 42.02889218192745,
        "RAAN(deg)": 109.99369926290386,
        "Satellite Name": "Test1 486",
        "Satellite Number": 486,
        "Semi-Major Axis(m)": 6980739.136638005,
        "Time(s)": 150
    },
    {
        "Altitude(m)": 606857.3009172799,
        "Argument of Periapsis(deg)": 0.0016670313461274247,
        "Eccentricity": 0.0,
        "Inclination(deg)": 60.0,
        "Latitude(deg)": 36.0293841594662,
        "Longitude(deg)": 34.04094111714218,
        "Mean Anomaly(deg)": 42.64899832738929,
        "RAAN(deg)": 109.99327921376411,
        "Satellite Name": "Test1 486",
        "Satellite Number": 486,
        "Semi-Major Axis(m)": 6980739.136638005,
        "Time(s)": 160
    },
    {
        "Altitude(m)": 606953.9340452241,
        "Argument of Periapsis(deg)": 0.0017712208052603888,
        "Eccentricity": 0.0,
        "Inclination(deg)": 60.0,
        "Latitude(deg)": 36.51792647732294,
        "Longitude(deg)": 34.47467661872808,
        "Mean Anomaly(deg)": 43.26910447285113,
        "RAAN(deg)": 109.99285916462438,
        "Satellite Name": "Test1 486",
        "Satellite Number": 486,
        "Semi-Major Axis(m)": 6980739.136638005,
        "Time(s)": 170
    },
    {
        "Altitude(m)": 607051.2789437241,
        "Argument of Periapsis(deg)": 0.001875410264393353,
        "Eccentricity": 0.0,
        "Inclination(deg)": 60.0,
        "Latitude(deg)": 37.0045109996293,
        "Longitude(deg)": 34.914404982708135,
        "Mean Anomaly(deg)": 43.889210618312944,
        "RAAN(deg)": 109.99243911548463,
        "Satellite Name": "Test1 486",
        "Satellite Number": 486,
        "Semi-Major Axis(m)": 6980739.136638005,
        "Time(s)": 180
    },
    {
        "Altitude(m)": 607149.2719149562,
        "Argument of Periapsis(deg)": 0.0019795997235263173,
        "Eccentricity": 0.0,
        "Inclination(deg)": 60.0,
        "Latitude(deg)": 37.489079031806384,
        "Longitude(deg)": 35.360286279262375,
        "Mean Anomaly(deg)": 44.509316763774784,
        "RAAN(deg)": 109.9920190663449,
        "Satellite Name": "Test1 486",
        "Satellite Number": 486,
        "Semi-Major Axis(m)": 6980739.136638005,
        "Time(s)": 190
    }
]